{"type": "FeatureCollection", "features": [{"type": "Feature", "properties": {"norad_id": 2807, "name": "OPS 7218 (TRANSIT 16)", "group": "nnss", "lat": -61.80726121547619, "lon": -6.775355905043971, "alt_km": 1092.4426741082661, "timestamp": "2025-12-18T04:58:34.844748+00:00", "meta": {"OBJECT_NAME": "OPS 7218 (TRANSIT 16)", "OBJECT_ID": "1967-048A", "EPOCH": "2025-12-17T22:29:07.650240", "MEAN_MOTION": 13.50723303, "ECCENTRICITY": 0.00221131, "INCLINATION": 89.6731, "RA_OF_ASC_NODE": 353.8438, "ARG_OF_PERICENTER": 100.1963, "MEAN_ANOMALY": 323.8094, "EPHEMERIS_TYPE": 0, "CLASSIFICATION_TYPE": "U", "NORAD_CAT_ID": 2807, "ELEMENT_SET_NO": 999, "REV_AT_EPOCH": 88346, "BSTAR": 0.00016533588, "MEAN_MOTION_DOT": 1.17e-06, "MEAN_MOTION_DDOT": 0}, "tle": {"line1": "1 02807U 67048A   25351.93689410  .00000117  00000+0  16534-3 0  9998", "line2": "2 02807  89.6731 353.8438 0022113 100.1963 323.8094 13.50723303883461"}}, "geometry": {"type": "Point", "coordinates": [-6.775355905043971, -61.80726121547619]}}, {"type": "Feature", "properties": {"norad_id": 2965, "name": "OPS 4947 (TRANSIT 17)", "group": "nnss", "lat": 56.28676562297627, "lon": 25.14481067889406, "alt_km": 1087.1344375137978, "timestamp": "2025-12-18T04:58:34.844770+00:00", "meta": {"OBJECT_NAME": "OPS 4947 (TRANSIT 17)", "OBJECT_ID": "1967-092A", "EPOCH": "2025-12-17T20:40:53.620608", "MEAN_MOTION": 13.53454821, "ECCENTRICITY": 0.00465171, "INCLINATION": 89.2492, "RA_OF_ASC_NODE": 24.0451, "ARG_OF_PERICENTER": 219.2246, "MEAN_ANOMALY": 314.3062, "EPHEMERIS_TYPE": 0, "CLASSIFICATION_TYPE": "U", "NORAD_CAT_ID": 2965, "ELEMENT_SET_NO": 999, "REV_AT_EPOCH": 87166, "BSTAR": 0.00021058008, "MEAN_MOTION_DOT": 1.54e-06, "MEAN_MOTION_DDOT": 0}, "tle": {"line1": "1 02965U 67092A   25351.86173172  .00000154  00000+0  21058-3 0  9995", "line2": "2 02965  89.2492  24.0451 0046517 219.2246 314.3062 13.53454821871666"}}, "geometry": {"type": "Point", "coordinates": [25.14481067889406, 56.28676562297627]}}, {"type": "Feature", "properties": {"norad_id": 3133, "name": "OPS 7034 (TRANSIT 18)", "group": "nnss", "lat": 11.077378181703223, "lon": 93.65985361403771, "alt_km": 1014.5326045830952, "timestamp": "2025-12-18T04:58:34.844784+00:00", "meta": {"OBJECT_NAME": "OPS 7034 (TRANSIT 18)", "OBJECT_ID": "1968-012A", "EPOCH": "2025-12-17T17:47:04.342272", "MEAN_MOTION": 13.51566828, "ECCENTRICITY": 0.00743372, "INCLINATION": 90.0282, "RA_OF_ASC_NODE": 273.653, "ARG_OF_PERICENTER": 154.6929, "MEAN_ANOMALY": 266.273, "EPHEMERIS_TYPE": 0, "CLASSIFICATION_TYPE": "U", "NORAD_CAT_ID": 3133, "ELEMENT_SET_NO": 999, "REV_AT_EPOCH": 56986, "BSTAR": 0.00013824909, "MEAN_MOTION_DOT": 1.01e-06, "MEAN_MOTION_DDOT": 0}, "tle": {"line1": "1 03133U 68012A   25351.74102248  .00000101  00000+0  13825-3 0  9994", "line2": "2 03133  90.0282 273.6530 0074337 154.6929 266.2730 13.51566828569864"}}, "geometry": {"type": "Point", "coordinates": [93.65985361403771, 11.077378181703223]}}, {"type": "Feature", "properties": {"norad_id": 4507, "name": "NNSS 19 (TRANSIT 19)", "group": "nnss", "lat": 45.98461356599215, "lon": 54.54303341014381, "alt_km": 1164.5886581088835, "timestamp": "2025-12-18T04:58:34.844795+00:00", "meta": {"OBJECT_NAME": "NNSS 19 (TRANSIT 19)", "OBJECT_ID": "1970-067A", "EPOCH": "2025-12-17T17:38:16.057248", "MEAN_MOTION": 13.51316094, "ECCENTRICITY": 0.01703061, "INCLINATION": 90.0052, "RA_OF_ASC_NODE": 234.5374, "ARG_OF_PERICENTER": 278.7698, "MEAN_ANOMALY": 79.42, "EPHEMERIS_TYPE": 0, "CLASSIFICATION_TYPE": "U", "NORAD_CAT_ID": 4507, "ELEMENT_SET_NO": 999, "REV_AT_EPOCH": 72289, "BSTAR": 0.00012401453, "MEAN_MOTION_DOT": 9.6e-07, "MEAN_MOTION_DDOT": 0}, "tle": {"line1": "1 04507U 70067A   25351.73490807  .00000096  00000+0  12401-3 0  9995", "line2": "2 04507  90.0052 234.5374 0170306 278.7698  79.4200 13.51316094722899"}}, "geometry": {"type": "Point", "coordinates": [54.54303341014381, 45.98461356599215]}}, {"type": "Feature", "properties": {"norad_id": 6909, "name": "NNSS 20 (TRANSIT 20)", "group": "nnss", "lat": -63.26918820474432, "lon": 75.25798271210708, "alt_km": 1117.109918389372, "timestamp": "2025-12-18T04:58:34.844811+00:00", "meta": {"OBJECT_NAME": "NNSS 20 (TRANSIT 20)", "OBJECT_ID": "1973-081A", "EPOCH": "2025-12-17T19:02:46.423104", "MEAN_MOTION": 13.71436716, "ECCENTRICITY": 0.01565258, "INCLINATION": 89.8562, "RA_OF_ASC_NODE": 254.9785, "ARG_OF_PERICENTER": 63.3548, "MEAN_ANOMALY": 298.355, "EPHEMERIS_TYPE": 0, "CLASSIFICATION_TYPE": "U", "NORAD_CAT_ID": 6909, "ELEMENT_SET_NO": 999, "REV_AT_EPOCH": 80430, "BSTAR": 0.00023002948, "MEAN_MOTION_DOT": 2.37e-06, "MEAN_MOTION_DDOT": 0}, "tle": {"line1": "1 06909U 73081A   25351.79359286  .00000237  00000+0  23003-3 0  9990", "line2": "2 06909  89.8562 254.9785 0156525  63.3548 298.3550 13.71436716804303"}}, "geometry": {"type": "Point", "coordinates": [75.25798271210708, -63.26918820474432]}}, {"type": "Feature", "properties": {"norad_id": 10457, "name": "TRANSAT", "group": "nnss", "lat": 86.77170582984259, "lon": -107.85167062183835, "alt_km": 1065.4797698372504, "timestamp": "2025-12-18T04:58:34.844822+00:00", "meta": {"OBJECT_NAME": "TRANSAT", "OBJECT_ID": "1977-106A", "EPOCH": "2025-12-17T18:26:08.490048", "MEAN_MOTION": 13.48944321, "ECCENTRICITY": 0.00258702, "INCLINATION": 89.6481, "RA_OF_ASC_NODE": 78.419, "ARG_OF_PERICENTER": 175.0435, "MEAN_ANOMALY": 306.9057, "EPHEMERIS_TYPE": 0, "CLASSIFICATION_TYPE": "U", "NORAD_CAT_ID": 10457, "ELEMENT_SET_NO": 999, "REV_AT_EPOCH": 36811, "BSTAR": 9.4898831e-05, "MEAN_MOTION_DOT": 7e-07, "MEAN_MOTION_DDOT": 0}, "tle": {"line1": "1 10457U 77106A   25351.76815382  .00000070  00000+0  94899-4 0  9993", "line2": "2 10457  89.6481  78.4190 0025870 175.0435 306.9057 13.48944321368119"}}, "geometry": {"type": "Point", "coordinates": [-107.85167062183835, 86.77170582984259]}}, {"type": "Feature", "properties": {"norad_id": 12458, "name": "NOVA 1", "group": "nnss", "lat": -30.796670471357025, "lon": -88.60425634337352, "alt_km": 1184.2319812664882, "timestamp": "2025-12-18T04:58:34.844833+00:00", "meta": {"OBJECT_NAME": "NOVA 1", "OBJECT_ID": "1981-044A", "EPOCH": "2025-12-17T21:16:28.309728", "MEAN_MOTION": 13.23278933, "ECCENTRICITY": 0.00159028, "INCLINATION": 89.8528, "RA_OF_ASC_NODE": 91.3125, "ARG_OF_PERICENTER": 91.3703, "MEAN_ANOMALY": 31.3043, "EPHEMERIS_TYPE": 0, "CLASSIFICATION_TYPE": "U", "NORAD_CAT_ID": 12458, "ELEMENT_SET_NO": 999, "REV_AT_EPOCH": 15254, "BSTAR": 8.8572025e-05, "MEAN_MOTION_DOT": 4.7e-07, "MEAN_MOTION_DDOT": 0}, "tle": {"line1": "1 12458U 81044A   25351.88643877  .00000047  00000+0  88572-4 0  9998", "line2": "2 12458  89.8528  91.3125 0015902  91.3703  31.3043 13.23278933152545"}}, "geometry": {"type": "Point", "coordinates": [-88.60425634337352, -30.796670471357025]}}, {"type": "Feature", "properties": {"norad_id": 15362, "name": "NOVA 3", "group": "nnss", "lat": 78.89294204158672, "lon": 79.97580115341091, "alt_km": 1178.086023478797, "timestamp": "2025-12-18T04:58:34.844844+00:00", "meta": {"OBJECT_NAME": "NOVA 3", "OBJECT_ID": "1984-110A", "EPOCH": "2025-12-17T20:07:30.630144", "MEAN_MOTION": 13.23045117, "ECCENTRICITY": 0.0030132, "INCLINATION": 90.1223, "RA_OF_ASC_NODE": 80.5948, "ARG_OF_PERICENTER": 317.3503, "MEAN_ANOMALY": 165.714, "EPHEMERIS_TYPE": 0, "CLASSIFICATION_TYPE": "U", "NORAD_CAT_ID": 15362, "ELEMENT_SET_NO": 999, "REV_AT_EPOCH": 98766, "BSTAR": 0.00015438224, "MEAN_MOTION_DOT": 7.3e-07, "MEAN_MOTION_DDOT": 0}, "tle": {"line1": "1 15362U 84110A   25351.83854896  .00000073  00000+0  15438-3 0  9991", "line2": "2 15362  90.1223  80.5948 0030132 317.3503 165.7140 13.23045117987668"}}, "geometry": {"type": "Point", "coordinates": [79.97580115341091, 78.89294204158672]}}, {"type": "Feature", "properties": {"norad_id": 15935, "name": "OSCAR 30", "group": "nnss", "lat": 55.08199775280546, "lon": 99.69913234619227, "alt_km": 995.1036432806677, "timestamp": "2025-12-18T04:58:34.844854+00:00", "meta": {"OBJECT_NAME": "OSCAR 30", "OBJECT_ID": "1985-066A", "EPOCH": "2025-12-17T18:40:36.967296", "MEAN_MOTION": 13.36079113, "ECCENTRICITY": 0.0169301, "INCLINATION": 90.1656, "RA_OF_ASC_NODE": 99.9295, "ARG_OF_PERICENTER": 69.8472, "MEAN_ANOMALY": 82.8303, "EPHEMERIS_TYPE": 0, "CLASSIFICATION_TYPE": "U", "NORAD_CAT_ID": 15935, "ELEMENT_SET_NO": 999, "REV_AT_EPOCH": 96520, "BSTAR": 0.00011274716, "MEAN_MOTION_DOT": 7.3e-07, "MEAN_MOTION_DDOT": 0}, "tle": {"line1": "1 15935U 85066A   25351.77820564  .00000073  00000+0  11275-3 0  9991", "line2": "2 15935  90.1656  99.9295 0169301  69.8472  82.8303 13.36079113965201"}}, "geometry": {"type": "Point", "coordinates": [99.69913234619227, 55.08199775280546]}}, {"type": "Feature", "properties": {"norad_id": 15936, "name": "OSCAR 24", "group": "nnss", "lat": 50.22241536685997, "lon": -87.38257324610962, "alt_km": 1044.4659958626744, "timestamp": "2025-12-18T04:58:34.844865+00:00", "meta": {"OBJECT_NAME": "OSCAR 24", "OBJECT_ID": "1985-066B", "EPOCH": "2025-12-17T19:56:01.480416", "MEAN_MOTION": 13.35936476, "ECCENTRICITY": 0.01704059, "INCLINATION": 90.1792, "RA_OF_ASC_NODE": 92.3954, "ARG_OF_PERICENTER": 76.1344, "MEAN_ANOMALY": 41.0064, "EPHEMERIS_TYPE": 0, "CLASSIFICATION_TYPE": "U", "NORAD_CAT_ID": 15936, "ELEMENT_SET_NO": 999, "REV_AT_EPOCH": 96711, "BSTAR": 8.7400764e-05, "MEAN_MOTION_DOT": 5.9e-07, "MEAN_MOTION_DDOT": 0}, "tle": {"line1": "1 15936U 85066B   25351.83057269  .00000059  00000+0  87401-4 0  9992", "line2": "2 15936  90.1792  92.3954 0170405  76.1344  41.0064 13.35936476967114"}}, "geometry": {"type": "Point", "coordinates": [-87.38257324610962, 50.22241536685997]}}]}